TYVAK-0130              
1 48606U 21041BF  26068.48452211  .00008857  00000+0  35198-3 0  9997
2 48606  52.9967 128.6030 0008953 215.1647 144.8760 15.26049141265157
STARLINK-31684          
1 59492U 24071J   26067.81379809 -.00003934  00000+0 -13350-3 0  9994
2 59492  42.9980 352.3031 0000637 257.0512 103.0268 15.27581574107988
